<?xml version="1.0" encoding="UTF-8" standalone="yes"?>
<ndm>
    <oem id="CCSDS_OEM_VERS" version="2.0">
        <header>
            <CREATION_DATE>2022-021T21:25:54.578Z</CREATION_DATE>
            <ORIGINATOR>JSC</ORIGINATOR>
        </header>
        <body>
            <segment>
                <metadata>
                    <OBJECT_NAME>ISS</OBJECT_NAME>
                    <OBJECT_ID>1998-067-A</OBJECT_ID>
                    <CENTER_NAME>EARTH</CENTER_NAME>
                    <REF_FRAME>EME2000</REF_FRAME>
                    <TIME_SYSTEM>UTC</TIME_SYSTEM>
                    <START_TIME>2022-021T12:00:00.000Z</START_TIME>
                    <STOP_TIME>2022-036T12:00:00.000Z</STOP_TIME>
                </metadata>
                <data>
                    <COMMENT>Units are in kg and m^2</COMMENT>
                    <COMMENT>MASS=458943.00</COMMENT>
                    <COMMENT>DRAG_AREA=1951.00</COMMENT>
                    <COMMENT>DRAG_COEFF=1.90</COMMENT>
                    <COMMENT>SOLAR_RAD_AREA=0.00</COMMENT>
                    <COMMENT>SOLAR_RAD_COEFF=0.00</COMMENT>
                    <COMMENT>Orbits start at the ascending node epoch </COMMENT>
                    <COMMENT>ISS first asc. node: EPOCH = 2022-01-21T13:09:08.779 $ ORBIT = 243 $ LAN(DEG) = 24.60718</COMMENT>
                    <COMMENT>ISS last asc. node : EPOCH = 2022-02-05T10:40:17.032 $ ORBIT = 474 $ LAN(DEG) = -26.61623</COMMENT>
                    <COMMENT>Begin sequence of events</COMMENT>
                    <COMMENT>TRAJECTORY EVENT SUMMARY:</COMMENT>
                    <COMMENT></COMMENT>
                    <COMMENT>|       EVENT        |       TIG        | ORB |   DV    |   HA    |   HP    |</COMMENT>
                    <COMMENT>|                    |       GMT        |     |   M/S   |   KM    |   KM    |</COMMENT>
                    <COMMENT>|                    |                  |     |  (F/S)  |  (NM)   |  (NM)   |</COMMENT>
                    <COMMENT>=============================================================================</COMMENT>
                    <COMMENT> SpX-24 Undock         022:15:35:00.000             0.0     427.5     407.8</COMMENT>
                    <COMMENT>                                                   (0.0)   (230.9)   (220.2)</COMMENT>
                    <COMMENT></COMMENT>
                    <COMMENT>=============================================================================</COMMENT>
                    <COMMENT>End sequence of events</COMMENT>
                    <stateVector>
                        <EPOCH>2022-025T08:43:00.000Z</EPOCH>
                        <X units="km">5061.5424838766103</X>
                        <Y units="km">682.63662806269997</Y>
                        <Z units="km">4467.8527642070403</Z>
                        <X_DOT units="km/s">-3.6715652822103202</X_DOT>
                        <Y_DOT units="km/s">5.89660396339222</Y_DOT>
                        <Z_DOT units="km/s">3.2497174823600301</Z_DOT>
                    </stateVector>
                    <stateVector>
                        <EPOCH>2022-025T08:47:00.000Z</EPOCH>
                        <X units="km">4006.61582979168</X>
                        <Y units="km">2055.7135059141401</Y>
                        <Z units="km">5074.9509602091402</Z>
                        <X_DOT units="km/s">-5.06559218635054</X_DOT>
                        <Y_DOT units="km/s">5.4757170339263599</Y_DOT>
                        <Z_DOT units="km/s">1.7785003772236401</Z_DOT>
                    </stateVector>
                    <stateVector>
                        <EPOCH>2022-025T08:51:00.000Z</EPOCH>
                        <X units="km">2659.7059303320698</X>
                        <Y units="km">3278.9982967076699</Y>
                        <Z units="km">5311.1637635486804</Z>
                        <X_DOT units="km/s">-6.0899394484348699</X_DOT>
                        <Y_DOT units="km/s">4.6560211852977904</Y_DOT>
                        <Z_DOT units="km/s">0.17797230453262</Z_DOT>
                    </stateVector>
                    <stateVector>
                        <EPOCH>2022-025T08:55:00.000Z</EPOCH>
                        <X units="km">1119.0426330442001</X>
                        <Y units="km">4263.4253238212896</Y>
                        <Z units="km">5159.3760218943298</Z>
                        <X_DOT units="km/s">-6.6704014844778703</X_DOT>
                        <Y_DOT units="km/s">3.4974203833604798</Y_DOT>
                        <Z_DOT units="km/s">-1.4350543279799799</Z_DOT>
                    </stateVector>
                    <stateVector>
                        <EPOCH>2022-025T08:59:00.000Z</EPOCH>
                        <X units="km">-503.124706384646</X>
                        <Y units="km">4937.3441105594402</Y>
                        <Z units="km">4630.75781141273</Z>
                        <X_DOT units="km/s">-6.7650131189191596</X_DOT>
                        <Y_DOT units="km/s">2.08424297736856</Y_DOT>
                        <Z_DOT units="km/s">-2.9430775335574499</Z_DOT>
                    </stateVector>
                    <stateVector>
                        <EPOCH>2022-025T09:03:00.000Z</EPOCH>
                        <X units="km">-2088.6520952393198</X>
                        <Y units="km">5251.69241700152</Y>
                        <Z units="km">3763.9385976030399</Z>
                        <X_DOT units="km/s">-6.3669399438344696</X_DOT>
                        <Y_DOT units="km/s">0.51932231270258</Y_DOT>
                        <Z_DOT units="km/s">-4.2361262413747003</Z_DOT>
                    </stateVector>
                    <stateVector>
                        <EPOCH>2022-025T09:07:00.000Z</EPOCH>
                        <X units="km">-3522.0762930349301</X>
                        <Y units="km">5183.5976104200099</Y>
                        <Z units="km">2622.23379423193</Z>
                        <X_DOT units="km/s">-5.50526887763501</X_DOT>
                        <Y_DOT units="km/s">-1.08325906901518</Y_DOT>
                        <Z_DOT units="km/s">-5.2197224384241299</Z_DOT>
                    </stateVector>
                    <stateVector>
                        <EPOCH>2022-025T09:11:00.000Z</EPOCH>
                        <X units="km">-4699.0674766043603</X>
                        <Y units="km">4738.0977693585501</Y>
                        <Z units="km">1289.05830974421</Z>
                        <X_DOT units="km/s">-4.2431728013519496</X_DOT>
                        <Y_DOT units="km/s">-2.6064151835339802</Y_DOT>
                        <Z_DOT units="km/s">-5.8219374025267197</Z_DOT>
                    </stateVector>
                    <stateVector>
                        <EPOCH>2022-025T09:15:00.000Z</EPOCH>
                        <X units="km">-5534.1249428616402</X>
                        <Y units="km">3947.8140869899498</Y>
                        <Z units="km">-138.20202126105499</Z>
                        <X_DOT units="km/s">-2.6734085656600399</X_DOT>
                        <Y_DOT units="km/s">-3.9388534653104901</Y_DOT>
                        <Z_DOT units="km/s">-5.9990372846657802</Z_DOT>
                    </stateVector>
                    <stateVector>
                        <EPOCH>2022-025T09:19:00.000Z</EPOCH>
                        <X units="km">-5966.8789810452699</X>
                        <Y units="km">2870.5243471305998</Y>
                        <Z units="km">-1555.4101725256501</Z>
                        <X_DOT units="km/s">-0.91129353929719004</X_DOT>
                        <Y_DOT units="km/s">-4.9835676438066203</Y_DOT>
                        <Z_DOT units="km/s">-5.7388587730249201</Z_DOT>
                    </stateVector>
                    <stateVector>
                        <EPOCH>2022-025T09:23:00.000Z</EPOCH>
                        <X units="km">-5966.4639147452399</X>
                        <Y units="km">1584.82268000163</Y>
                        <Z units="km">-2859.4060406335202</Z>
                        <X_DOT units="km/s">0.91422319837513</X_DOT>
                        <Y_DOT units="km/s">-5.6651837907210201</Y_DOT>
                        <Z_DOT units="km/s">-5.0616022918039496</Z_DOT>
                    </stateVector>
                    <stateVector>
                        <EPOCH>2022-025T09:27:00.000Z</EPOCH>
                        <X units="km">-5533.6074068929202</X>
                        <Y units="km">184.22769706952101</Y>
                        <Z units="km">-3955.5912064425302</Z>
                        <X_DOT units="km/s">2.6705055117707599</X_DOT>
                        <Y_DOT units="km/s">-5.9354166200823597</Y_DOT>
                        <Z_DOT units="km/s">-4.0178709090892699</Z_DOT>
                    </stateVector>
                    <stateVector>
                        <EPOCH>2022-025T09:31:00.000Z</EPOCH>
                        <X units="km">-4700.3166923437402</X>
                        <Y units="km">-1229.7272805764701</Y>
                        <Z units="km">-4764.7441459132697</Z>
                        <X_DOT units="km/s">4.2310990170660698</X_DOT>
                        <Y_DOT units="km/s">-5.7760534668075403</Y_DOT>
                        <Z_DOT units="km/s">-2.6843094731210999</Z_DOT>
                    </stateVector>
                    
                </data>
            </segment>
        </body>
    </oem>
</ndm>
